ONEWEB-0271             
1 48989U 21060Y   26064.05501103  .00000042  00000+0  76652-4 0  9995
2 48989  87.9001 249.4876 0001724 106.1514 253.9806 13.16596417225967
ONEWEB-0272             
1 48990U 21060Z   26063.46919068 -.00000004  00000+0 -43627-4 0  9990
2 48990  87.9000 249.6162 0001473 103.5410 256.5885 13.16596041225830
ONEWEB-0273             
1 48991U 21060AA  26063.49136630  .00000060  00000+0  12350-3 0  9998
2 48991  87.8998 249.6100 0001703  99.7418 260.3905 13.16593445225817
ONEWEB-0274             
1 48992U 21060AB  26064.04867807  .00000065  00000+0  13525-3 0  9998
2 48992  87.8989 249.5123 0001262  98.7685 261.3588 13.16593263225925
ONEWEB-0275             
1 48993U 21060AC  26064.03759330  .00000130  00000+0  30680-3 0  9993
2 48993  87.9000 249.4933 0001512  97.5047 262.6255 13.16593043225859
ONEWEB-0276             
1 48994U 21060AD  26063.46286976 -.00000003  00000+0 -42713-4 0  9993
2 48994  87.9000 249.6082 0001802  95.8423 264.2913 13.16593539225790
ONEWEB-0277             
1 48995U 21060AE  26063.77949117 -.00000765  00000+0 -20343-2 0  9999
2 48995  87.8988 249.5608 0001572  99.9342 260.1967 13.16584139225821
ONEWEB-0278             
1 48996U 21060AF  26064.07400634 -.00000078  00000+0 -23850-3 0  9994
2 48996  87.8998 249.4824 0001779  88.9984 271.1350 13.16593613225994
ONEWEB-0279             
1 48997U 21060AG  26063.92992924 -.00000019  00000+0 -84437-4 0  9990
2 48997  87.9002 249.5111 0001571 105.3889 254.7416 13.16593218225902
ONEWEB-0280             
1 48998U 21060AH  26063.48900009  .00000012  00000+0 -11019-5 0  9994
2 48998  87.9000 249.6040 0001970  95.8029 264.3326 13.16593694225786
ONEWEB-0281             
1 48999U 21060AJ  26064.17850528  .00000043  00000+0  79224-4 0  9996
2 48999  87.8996 249.4608 0001494  94.7623 265.3679 13.16593204225944
ONEWEB-0282             
1 49000U 21060AK  26064.05659255 -.00000008  00000+0 -55210-4 0  9993
2 49000  87.8999 249.4957 0001728  99.1125 261.0201 13.16593178225904
ONEWEB-0283             
1 49001U 21060AL  26064.04550781  .00000022  00000+0  23432-4 0  9992
2 49001  87.9000 249.4978 0001592 101.9973 258.1336 13.16593058225918
ONEWEB-0284             
1 49002U 21060AM  26064.03918347  .00000085  00000+0  18979-3 0  9996
2 49002  87.9001 249.4905 0001942  92.6065 267.5288 13.16593059225895
ONEWEB-0285             
1 49075U 21075A   26063.38663855  .00000377  00000+0  10129-2 0  9992
2 49075  87.9001  11.4596 0001845  83.2090 276.9249 13.12440645221462
ONEWEB-0286             
1 49076U 21075B   26063.82614670  .00000277  00000+0  73471-3 0  9992
2 49076  87.8987  11.3996 0001754  74.2234 285.9088 13.12443830220871
ONEWEB-0287             
1 49077U 21075C   26063.45067650  .00000043  00000+0  78714-4 0  9999
2 49077  87.9142  26.6650 0001934  68.1705 291.9633 13.17650379219837
ONEWEB-0288             
1 49078U 21075D   26064.10750557 -.00000413  00000+0 -11833-2 0  9998
2 49078  87.8997  11.3112 0001908  78.0959 282.0383 13.12441754221534
ONEWEB-0289             
1 49079U 21075E   26064.17276413  .00000031  00000+0  47117-4 0  9990
2 49079  87.9147  26.5334 0002296  85.3044 274.8349 13.17650892220501
ONEWEB-0290             
1 49080U 21075F   26063.38656766 -.00000025  00000+0 -97388-4 0  9997
2 49080  87.9150  26.6577 0002337  92.5341 267.6058 13.17647610219816
ONEWEB-0291             
1 49081U 21075G   26063.44730987  .00000008  00000+0 -13583-4 0  9998
2 49081  87.9151  26.6540 0002154  74.5579 285.5791 13.17649437219810
ONEWEB-0293             
1 49082U 21075H   26064.15605164  .00000075  00000+0  15991-3 0  9993
2 49082  87.9140  26.5253 0002050  82.1814 277.9550 13.17648869219930
ONEWEB-0294             
1 49083U 21075J   26063.35190977 -.00000239  00000+0 -69995-3 0  9993
2 49083  87.8997  11.4634 0002163  84.1620 275.9755 13.12442493220823
ONEWEB-0295             
1 49084U 21075K   26063.39585088  .00000021  00000+0  20105-4 0  9997
2 49084  87.9141  26.6804 0002081  73.1682 286.9678 13.17649305219794
ONEWEB-0296             
1 49085U 21075L   26064.09395208 -.00000154  00000+0 -46280-3 0  9999
2 49085  87.9003  11.3195 0002059  73.0179 287.1175 13.12441151220927
ONEWEB-0297             
1 49086U 21075M   26064.12445220 -.00000078  00000+0 -25319-3 0  9999
2 49086  87.8988  11.3391 0001832  76.2268 283.9064 13.12442574221538
ONEWEB-0298             
1 49087U 21075N   26064.15955482 -.00000019  00000+0 -82315-4 0  9994
2 49087  87.9141  26.5259 0001718  80.4423 279.6903 13.17650115219926
ONEWEB-0299             
1 49088U 21075P   26063.40173889  .00000004  00000+0 -22772-4 0  9999
2 49088  87.9154  26.6460 0001891  75.7699 284.3642 13.17649798219805
ONEWEB-0300             
1 49089U 21075Q   26063.81187778 -.00000240  00000+0 -70150-3 0  9992
2 49089  87.9000  11.3685 0001438  77.7744 282.3545 13.12443582221515
ONEWEB-0301             
1 49090U 21075R   26063.33834323 -.00000418  00000+0 -11982-2 0  9990
2 49090  87.8997  11.4630 0001424  82.2348 277.8942 13.12443960220810
ONEWEB-0302             
1 49091U 21075S   26064.08717896  .00000071  00000+0  16100-3 0  9990
2 49091  87.9003  11.3233 0002132  79.9623 280.1746 13.12441523220894
ONEWEB-0304             
1 49092U 21075T   26064.13580729  .00000009  00000+0 -87353-5 0  9992
2 49092  87.9153  26.5303 0001897  78.2971 281.8373 13.17648522219875
ONEWEB-0305             
1 49093U 21075U   26063.82531059  .00000024  00000+0  27529-4 0  9994
2 49093  87.9150  26.5708 0001955  69.8079 290.3262 13.17648771219869
ONEWEB-0308             
1 49094U 21075V   26064.08040005  .00000292  00000+0  77519-3 0  9990
2 49094  87.9000  11.3177 0001821  80.0084 280.1250 13.12441413220909
ONEWEB-0309             
1 49095U 21075W   26063.82868891  .00000123  00000+0  28324-3 0  9996
2 49095  87.9153  26.5847 0002295  82.7581 277.3811 13.17649782219833
ONEWEB-0310             
1 49096U 21075X   26064.09564038 -.00000194  00000+0 -57335-3 0  9997
2 49096  87.8993  11.3453 0001824  81.0896 279.0439 13.12443047221534
ONEWEB-0311             
1 49097U 21075Y   26063.45576874  .00000173  00000+0  41258-3 0  9990
2 49097  87.9151  26.6537 0001830  67.8123 292.3203 13.17650196219833
ONEWEB-0312             
1 49098U 21075Z   26063.39499877  .00000030  00000+0  44863-4 0  9999
2 49098  87.9142  26.6840 0002119  74.8372 285.2994 13.17649500219808
ONEWEB-0313             
1 49099U 21075AA  26064.15929354  .00000012  00000+0 -22627-5 0  9999
2 49099  87.9143  26.5384 0001846  76.9532 283.1805 13.17648570219892
ONEWEB-0314             
1 49100U 21075AB  26064.12567280  .00000088  00000+0  19354-3 0  9998
2 49100  87.9152  26.5077 0002110  72.8851 287.2511 13.17650166219868
ONEWEB-0315             
1 49101U 21075AC  26063.38240835  .00000424  00000+0  11441-2 0  9992
2 49101  87.8999  11.4428 0001663  69.0067 291.1240 13.12441721221427
ONEWEB-0316             
1 49102U 21075AD  26064.05630843  .00000000  00000+0 -32959-4 0  9990
2 49102  87.9242 356.1418 0001755  76.8858 283.2470 13.18684174223486
ONEWEB-0317             
1 49103U 21075AE  26064.14817448  .00000469  00000+0  12682-2 0  9996
2 49103  87.9002  11.3131 0002341  96.0391 264.1005 13.12442934221548
ONEWEB-0318             
1 49104U 21075AF  26064.05302108  .00000091  00000+0  19740-3 0  9993
2 49104  87.9253 356.1349 0001719  71.4931 288.6388 13.18685088223444
ONEWEB-0319             
1 49105U 21075AG  26064.14086547 -.00000118  00000+0 -33613-3 0  9997
2 49105  87.9144  26.5299 0001557  64.4946 295.6346 13.17648416219905
ONEWEB-0323             
1 49106U 21075AH  26064.12953010  .00000179  00000+0  46112-3 0  9997
2 49106  87.9001  11.2988 0001885  59.3075 300.8239 13.12442820220902
ONEWEB-0329             
1 49107U 21075AJ  26063.38993330 -.00000002  00000+0 -37101-4 0  9990
2 49107  87.9140  26.6796 0001944  77.7082 282.4267 13.17649128219787
ONEWEB-0330             
1 49108U 21075AK  26063.39078873  .00000006  00000+0 -18529-4 0  9994
2 49108  87.9142  26.6872 0002126  80.2388 279.8984 13.17648009219824
ONEWEB-0292             
1 49186U 21083A   26063.26901206 -.00000104  00000+0 -32057-3 0  9991
2 49186  87.9030 341.1171 0001625  72.5767 287.5540 13.13473032217157
ONEWEB-0303             
1 49187U 21083B   26064.04973036  .00000015  00000+0  63260-5 0  9990
2 49187  87.9252 356.1381 0001743  72.6933 287.4389 13.18686316216256
ONEWEB-0306             
1 49188U 21083C   26064.03983194  .00000005  00000+0 -20878-4 0  9993
2 49188  87.9251 356.1236 0001918  85.0445 275.0906 13.18686321216293
ONEWEB-0307             
1 49189U 21083D   26064.17721418 -.00000240  00000+0 -69326-3 0  9990
2 49189  87.9030 340.9260 0001756  77.3885 282.7441 13.13469619217271
ONEWEB-0320             
1 49190U 21083E   26064.05217526  .00000135  00000+0  31247-3 0  9991
2 49190  87.9241 356.1466 0001864  79.4313 280.7028 13.18132703216255
ONEWEB-0321             
1 49191U 21083F   26064.11108754  .00000067  00000+0  13203-3 0  9997
2 49191  87.9181 295.2155 0001796  93.6429 266.4910 13.20773052223099
ONEWEB-0322             
1 49192U 21083G   26063.25884743 -.00000263  00000+0 -75611-3 0  9992
2 49192  87.9031 341.1128 0001701  94.9147 265.2177 13.13469921217142
ONEWEB-0324             
1 49193U 21083H   26063.35034764  .00000068  00000+0  14039-3 0  9992
2 49193  87.9250 356.2661 0001956  77.4403 282.6948 13.18686220216188
ONEWEB-0325             
1 49194U 21083J   26063.80891104 -.00000008  00000+0 -51863-4 0  9995
2 49194  87.9244 356.1924 0001733  78.2140 281.9187 13.18685509216257
ONEWEB-0326             
1 49195U 21083K   26063.36862532  .00000092  00000+0  20108-3 0  9998
2 49195  87.9251 356.2689 0001632  70.2401 289.8907 13.18687208216182
ONEWEB-0327             
1 49196U 21083L   26063.82359573 -.00000525  00000+0 -13654-2 0  9996
2 49196  87.9240 356.1907 0001741  66.2927 293.8387 13.18688060216265
